YAOGAN-47               
1 66988U 25289A   26007.94984419  .00003621  00000+0  15441-3 0  9995
2 66988  97.5224  78.1345 0001284 121.9306 238.2056 15.23579917  4530
CZ-4B R/B               
1 66989U 25289B   26007.76838731  .00133952  77438-5  54164-3 0  9992
2 66989  97.5189  80.1072 0128562 264.1064  94.5534 15.74580722  4650
TJS-22                  
1 66990U 25290A   26007.31200067 -.00000004  00000+0  00000+0 0  9995
2 66990   1.9248 285.0687 0003324 348.1940  12.3880  1.00271816   416
CZ-3B R/B               
1 66991U 25290B   25349.72468800  .00057911 -20514-6  75879-3 0  9998
2 66991  28.4636 300.4666 7240884 182.7002 168.6250  2.38388611   165
2025-292A               
1 66993U 25292A   26007.94295418  .00004170  00000+0  29924-3 0  9990
2 66993  97.6495  85.2371 0015483 178.5908 181.5364 15.04779744  4336
THE ARAB SATELLITE 813  
1 66994U 25292B   26007.94195106  .00004685  00000+0  33498-3 0  9996
2 66994  97.6505  85.2418 0015283 178.9223 181.2039 15.04852518  4330
2025-292C               
1 66995U 25292C   26007.94260391  .00005089  00000+0  36427-3 0  9990
2 66995  97.6495  85.2376 0015479 177.1977 182.9339 15.04772488  4334
2025-292D               
1 66996U 25292D   26007.94154016  .00003564  00000+0  25622-3 0  9998
2 66996  97.6491  85.2373 0014644 180.7362 179.3845 15.04814196  4334
2025-292E               
1 66997U 25292E   26007.93944675  .00004053  00000+0  28962-3 0  9990
2 66997  97.6511  85.2477 0014973 182.0225 178.0943 15.04962796  4325
2025-292F               
1 66998U 25292F   26007.93590820  .00005052  00000+0  35748-3 0  9990
2 66998  97.6530  85.2595 0016119 182.7485 177.3656 15.05195961  4334
2025-292G               
1 66999U 25292G   26007.93468219  .00005070  00000+0  35823-3 0  9991
2 66999  97.6539  85.2643 0015585 184.4219 175.6872 15.05261006  4333
2025-292H               
1 67000U 25292H   26007.93404471  .00006119  00000+0  43044-3 0  9994
2 67000  97.6551  85.2699 0015450 184.4306 175.6787 15.05342659  4205
