CCSDS_OMM_VERS = 2.0
CREATION_DATE  = 
ORIGINATOR     = 

OBJECT_NAME    = YAOGAN-47
OBJECT_ID      = 2025-289A
CENTER_NAME    = EARTH
REF_FRAME      = TEME
TIME_SYSTEM    = UTC
MEAN_ELEMENT_THEORY = SGP/SGP4

EPOCH          = 2026-01-07T22:47:46.538016
MEAN_MOTION    = 15.23579917
ECCENTRICITY   = .00012846
INCLINATION    = 97.5224
RA_OF_ASC_NODE = 78.1345
ARG_OF_PERICENTER = 121.9306
MEAN_ANOMALY   = 238.2056

EPHEMERIS_TYPE = 0
CLASSIFICATION_TYPE = U
NORAD_CAT_ID   = 66988
ELEMENT_SET_NO = 999
REV_AT_EPOCH   = 453
BSTAR          = .15441448E-3
MEAN_MOTION_DOT = .3621E-4
MEAN_MOTION_DDOT = 0

CCSDS_OMM_VERS = 2.0
CREATION_DATE  = 
ORIGINATOR     = 

OBJECT_NAME    = CZ-4B R/B
OBJECT_ID      = 2025-289B
CENTER_NAME    = EARTH
REF_FRAME      = TEME
TIME_SYSTEM    = UTC
MEAN_ELEMENT_THEORY = SGP/SGP4

EPOCH          = 2026-01-07T18:26:28.663584
MEAN_MOTION    = 15.74580722
ECCENTRICITY   = .01285627
INCLINATION    = 97.5189
RA_OF_ASC_NODE = 80.1072
ARG_OF_PERICENTER = 264.1064
MEAN_ANOMALY   = 94.5534

EPHEMERIS_TYPE = 0
CLASSIFICATION_TYPE = U
NORAD_CAT_ID   = 66989
ELEMENT_SET_NO = 999
REV_AT_EPOCH   = 465
BSTAR          = .54164104E-3
MEAN_MOTION_DOT = .133952E-2
MEAN_MOTION_DDOT = .774383E-5

CCSDS_OMM_VERS = 2.0
CREATION_DATE  = 
ORIGINATOR     = 

OBJECT_NAME    = TJS-22
OBJECT_ID      = 2025-290A
CENTER_NAME    = EARTH
REF_FRAME      = TEME
TIME_SYSTEM    = UTC
MEAN_ELEMENT_THEORY = SGP/SGP4

EPOCH          = 2026-01-07T07:29:16.857888
MEAN_MOTION    = 1.00271816
ECCENTRICITY   = .00033241
INCLINATION    = 1.9248
RA_OF_ASC_NODE = 285.0687
ARG_OF_PERICENTER = 348.1940
MEAN_ANOMALY   = 12.3880

EPHEMERIS_TYPE = 0
CLASSIFICATION_TYPE = U
NORAD_CAT_ID   = 66990
ELEMENT_SET_NO = 999
REV_AT_EPOCH   = 41
BSTAR          = 0
MEAN_MOTION_DOT = -.4E-7
MEAN_MOTION_DDOT = 0

CCSDS_OMM_VERS = 2.0
CREATION_DATE  = 
ORIGINATOR     = 

OBJECT_NAME    = CZ-3B R/B
OBJECT_ID      = 2025-290B
CENTER_NAME    = EARTH
REF_FRAME      = TEME
TIME_SYSTEM    = UTC
MEAN_ELEMENT_THEORY = SGP/SGP4

EPOCH          = 2025-12-15T17:23:33.043200
MEAN_MOTION    = 2.38388611
ECCENTRICITY   = .7240884
INCLINATION    = 28.4636
RA_OF_ASC_NODE = 300.4666
ARG_OF_PERICENTER = 182.7002
MEAN_ANOMALY   = 168.6250

EPHEMERIS_TYPE = 0
CLASSIFICATION_TYPE = U
NORAD_CAT_ID   = 66991
ELEMENT_SET_NO = 999
REV_AT_EPOCH   = 16
BSTAR          = .75879E-3
MEAN_MOTION_DOT = .57911E-3
MEAN_MOTION_DDOT = -.20514E-6

CCSDS_OMM_VERS = 2.0
CREATION_DATE  = 
ORIGINATOR     = 

OBJECT_NAME    = 2025-292A
OBJECT_ID      = 2025-292A
CENTER_NAME    = EARTH
REF_FRAME      = TEME
TIME_SYSTEM    = UTC
MEAN_ELEMENT_THEORY = SGP/SGP4

EPOCH          = 2026-01-07T22:37:51.241152
MEAN_MOTION    = 15.04779744
ECCENTRICITY   = .00154836
INCLINATION    = 97.6495
RA_OF_ASC_NODE = 85.2371
ARG_OF_PERICENTER = 178.5908
MEAN_ANOMALY   = 181.5364

EPHEMERIS_TYPE = 0
CLASSIFICATION_TYPE = U
NORAD_CAT_ID   = 66993
ELEMENT_SET_NO = 999
REV_AT_EPOCH   = 433
BSTAR          = .29924484E-3
MEAN_MOTION_DOT = .417E-4
MEAN_MOTION_DDOT = 0

CCSDS_OMM_VERS = 2.0
CREATION_DATE  = 
ORIGINATOR     = 

OBJECT_NAME    = THE ARAB SATELLITE 813
OBJECT_ID      = 2025-292B
CENTER_NAME    = EARTH
REF_FRAME      = TEME
TIME_SYSTEM    = UTC
MEAN_ELEMENT_THEORY = SGP/SGP4

EPOCH          = 2026-01-07T22:36:24.571584
MEAN_MOTION    = 15.04852518
ECCENTRICITY   = .00152831
INCLINATION    = 97.6505
RA_OF_ASC_NODE = 85.2418
ARG_OF_PERICENTER = 178.9223
MEAN_ANOMALY   = 181.2039

EPHEMERIS_TYPE = 0
CLASSIFICATION_TYPE = U
NORAD_CAT_ID   = 66994
ELEMENT_SET_NO = 999
REV_AT_EPOCH   = 433
BSTAR          = .33497619E-3
MEAN_MOTION_DOT = .4685E-4
MEAN_MOTION_DDOT = 0

CCSDS_OMM_VERS = 2.0
CREATION_DATE  = 
ORIGINATOR     = 

OBJECT_NAME    = 2025-292C
OBJECT_ID      = 2025-292C
CENTER_NAME    = EARTH
REF_FRAME      = TEME
TIME_SYSTEM    = UTC
MEAN_ELEMENT_THEORY = SGP/SGP4

EPOCH          = 2026-01-07T22:37:20.977824
MEAN_MOTION    = 15.04772488
ECCENTRICITY   = .00154796
INCLINATION    = 97.6495
RA_OF_ASC_NODE = 85.2376
ARG_OF_PERICENTER = 177.1977
MEAN_ANOMALY   = 182.9339

EPHEMERIS_TYPE = 0
CLASSIFICATION_TYPE = U
NORAD_CAT_ID   = 66995
ELEMENT_SET_NO = 999
REV_AT_EPOCH   = 433
BSTAR          = .36426583E-3
MEAN_MOTION_DOT = .5089E-4
MEAN_MOTION_DDOT = 0

CCSDS_OMM_VERS = 2.0
CREATION_DATE  = 
ORIGINATOR     = 

OBJECT_NAME    = 2025-292D
OBJECT_ID      = 2025-292D
CENTER_NAME    = EARTH
REF_FRAME      = TEME
TIME_SYSTEM    = UTC
MEAN_ELEMENT_THEORY = SGP/SGP4

EPOCH          = 2026-01-07T22:35:49.069824
MEAN_MOTION    = 15.04814196
ECCENTRICITY   = .00146446
INCLINATION    = 97.6491
RA_OF_ASC_NODE = 85.2373
ARG_OF_PERICENTER = 180.7362
MEAN_ANOMALY   = 179.3845

EPHEMERIS_TYPE = 0
CLASSIFICATION_TYPE = U
NORAD_CAT_ID   = 66996
ELEMENT_SET_NO = 999
REV_AT_EPOCH   = 433
BSTAR          = .25622286E-3
MEAN_MOTION_DOT = .3564E-4
MEAN_MOTION_DDOT = 0

CCSDS_OMM_VERS = 2.0
CREATION_DATE  = 
ORIGINATOR     = 

OBJECT_NAME    = 2025-292E
OBJECT_ID      = 2025-292E
CENTER_NAME    = EARTH
REF_FRAME      = TEME
TIME_SYSTEM    = UTC
MEAN_ELEMENT_THEORY = SGP/SGP4

EPOCH          = 2026-01-07T22:32:48.199200
MEAN_MOTION    = 15.04962796
ECCENTRICITY   = .00149739
INCLINATION    = 97.6511
RA_OF_ASC_NODE = 85.2477
ARG_OF_PERICENTER = 182.0225
MEAN_ANOMALY   = 178.0943

EPHEMERIS_TYPE = 0
CLASSIFICATION_TYPE = U
NORAD_CAT_ID   = 66997
ELEMENT_SET_NO = 999
REV_AT_EPOCH   = 432
BSTAR          = .28961838E-3
MEAN_MOTION_DOT = .4053E-4
MEAN_MOTION_DDOT = 0

CCSDS_OMM_VERS = 2.0
CREATION_DATE  = 
ORIGINATOR     = 

OBJECT_NAME    = 2025-292F
OBJECT_ID      = 2025-292F
CENTER_NAME    = EARTH
REF_FRAME      = TEME
TIME_SYSTEM    = UTC
MEAN_ELEMENT_THEORY = SGP/SGP4

EPOCH          = 2026-01-07T22:27:42.468480
MEAN_MOTION    = 15.05195961
ECCENTRICITY   = .00161193
INCLINATION    = 97.6530
RA_OF_ASC_NODE = 85.2595
ARG_OF_PERICENTER = 182.7485
MEAN_ANOMALY   = 177.3656

EPHEMERIS_TYPE = 0
CLASSIFICATION_TYPE = U
NORAD_CAT_ID   = 66998
ELEMENT_SET_NO = 999
REV_AT_EPOCH   = 433
BSTAR          = .35748348E-3
MEAN_MOTION_DOT = .5052E-4
MEAN_MOTION_DDOT = 0

CCSDS_OMM_VERS = 2.0
CREATION_DATE  = 
ORIGINATOR     = 

OBJECT_NAME    = 2025-292G
OBJECT_ID      = 2025-292G
CENTER_NAME    = EARTH
REF_FRAME      = TEME
TIME_SYSTEM    = UTC
MEAN_ELEMENT_THEORY = SGP/SGP4

EPOCH          = 2026-01-07T22:25:56.541216
MEAN_MOTION    = 15.05261006
ECCENTRICITY   = .00155851
INCLINATION    = 97.6539
RA_OF_ASC_NODE = 85.2643
ARG_OF_PERICENTER = 184.4219
MEAN_ANOMALY   = 175.6872

EPHEMERIS_TYPE = 0
CLASSIFICATION_TYPE = U
NORAD_CAT_ID   = 66999
ELEMENT_SET_NO = 999
REV_AT_EPOCH   = 433
BSTAR          = .35823328E-3
MEAN_MOTION_DOT = .507E-4
MEAN_MOTION_DDOT = 0

CCSDS_OMM_VERS = 2.0
CREATION_DATE  = 
ORIGINATOR     = 

OBJECT_NAME    = 2025-292H
OBJECT_ID      = 2025-292H
CENTER_NAME    = EARTH
REF_FRAME      = TEME
TIME_SYSTEM    = UTC
MEAN_ELEMENT_THEORY = SGP/SGP4

EPOCH          = 2026-01-07T22:25:01.462944
MEAN_MOTION    = 15.05342659
ECCENTRICITY   = .00154502
INCLINATION    = 97.6551
RA_OF_ASC_NODE = 85.2699
ARG_OF_PERICENTER = 184.4306
MEAN_ANOMALY   = 175.6787

EPHEMERIS_TYPE = 0
CLASSIFICATION_TYPE = U
NORAD_CAT_ID   = 67000
ELEMENT_SET_NO = 999
REV_AT_EPOCH   = 420
BSTAR          = .43044148E-3
MEAN_MOTION_DOT = .6119E-4
MEAN_MOTION_DDOT = 0

